{
  "type": "FeatureCollection",
  "features": [
    {
      "type": "Feature",
      "geometry": {
        "type": "LineString",
        "coordinates": [
          [
            -74.006,
            40.7128
          ],
          [
            -74.0,
            40.7328
          ],
          [
            -73.994,
            40.7528
          ]
        ]
      },
      "properties": {
        "shape_id": "SH1",
        "route_id": "R1",
        "route_short_name": "1",
        "route_long_name": "Main Street Line",
        "route_color": "FF0000",
        "route_text_color": "FFFFFF"
      }
    }
  ]
}